FENGYUN 1C DEB          
1 30762U 99025ATY 17345.03824747 -.00000053  00000-0 -65059-5 0  9998
2 30762  99.0486  27.2865 0205859  62.8507   0.9528 13.94743206548946
